{
    "links": {
        "self": "http://www.neowsapp.com/rest/v1/neo/3276446?api_key=iIulBulltgU6a56xZRHN4H3l9WmuAYTsLGpBGhQ2"
    },
    "id": "3276446",
    "neo_reference_id": "3276446",
    "name": "(2005 GX119)",
    "designation": "2005 GX119",
    "nasa_jpl_url": "http://ssd.jpl.nasa.gov/sbdb.cgi?sstr=3276446",
    "absolute_magnitude_h": 25.7,
    "estimated_diameter": {
        "kilometers": {
            "estimated_diameter_min": 0.0192555078,
            "estimated_diameter_max": 0.0430566244
        },
        "meters": {
            "estimated_diameter_min": 19.2555078188,
            "estimated_diameter_max": 43.0566244241
        },
        "miles": {
            "estimated_diameter_min": 0.0119648141,
            "estimated_diameter_max": 0.0267541378
        },
        "feet": {
            "estimated_diameter_min": 63.1742402722,
            "estimated_diameter_max": 141.2618956756
        }
    },
    "is_potentially_hazardous_asteroid": false,
    "close_approach_data": [
        {
            "close_approach_date": "2005-03-26",
            "close_approach_date_full": "2005-Mar-26 11:24",
            "epoch_date_close_approach": 1111836240000,
            "relative_velocity": {
                "kilometers_per_second": "5.8669901012",
                "kilometers_per_hour": "21121.1643643323",
                "miles_per_hour": "13123.8701573819"
            },
            "miss_distance": {
                "astronomical": "0.0237620834",
                "lunar": "9.2434504426",
                "kilometers": "3554757.063402358",
                "miles": "2208823.6146862204"
            },
            "orbiting_body": "Earth"
        }
    ],
    "orbital_data": {
        "orbit_id": "7",
        "orbit_determination_date": "2017-04-06 09:11:05",
        "first_observation_date": "2005-04-10",
        "last_observation_date": "2005-04-12",
        "data_arc_in_days": 2,
        "observations_used": 18,
        "orbit_uncertainty": "9",
        "minimum_orbit_intersection": ".0138966",
        "jupiter_tisserand_invariant": "4.045",
        "epoch_osculation": "2453471.5",
        "eccentricity": ".4204176916451342",
        "semi_major_axis": "1.736371632535939",
        "inclination": ".9995801880625741",
        "ascending_node_longitude": "190.3839774801575",
        "orbital_period": "835.7231835477774",
        "perihelion_distance": "1.006370278947086",
        "perihelion_argument": "338.4861559320063",
        "aphelion_distance": "2.466372986124791",
        "perihelion_time": "2453441.836521372598",
        "mean_anomaly": "12.777977823388",
        "mean_motion": ".4307646444265707",
        "equinox": "J2000",
        "orbit_class": {
            "orbit_class_type": "APO",
            "orbit_class_description": "Near-Earth asteroid orbits which cross the Earth’s orbit similar to that of 1862 Apollo",
            "orbit_class_range": "a (semi-major axis) > 1.0 AU; q (perihelion) < 1.017 AU"
        }
    },
    "is_sentry_object": false
}